GLOBALSTAR M094         
1 39074U 13005C   25083.37061386 -.00000090  00000+0  74367-4 0  9994
2 39074  51.9947  80.3552 0000648  86.9497 273.1444 12.62269306561660
GLOBALSTAR M096         
1 39075U 13005D   25083.54224541 -.00000086  00000+0  10160-3 0  9993
2 39075  52.0054 128.2843 0000635  93.3985 266.6955 12.62269725560609
GLOBALSTAR M078         
1 39076U 13005E   25083.59446015 -.00000120  00000+0 -89482-4 0  9995
2 39076  51.9867 212.7456 0000890  40.4409 319.6523 12.62260397559239
GLOBALSTAR M095         
1 39077U 13005F   25083.62123314 -.00000096  00000+0  45530-4 0  9991
2 39077  51.9790 209.9055 0000962  75.2941 284.8032 12.62268100559097
GLOBALSTAR M087         
1 52888U 22064A   25083.01842298 -.00000072  00000+0  17771-3 0  9992
2 52888  51.9821 353.1468 0000766  68.7202 291.3747 12.62269767134282
